{
  "type": "FeatureCollection",
  "features": [
    {
      "type": "Feature",
      "properties": {
        "norad_id": 40118,
        "name": "GAOFEN-2",
        "group": "resource",
        "lat": 25.497830592915598,
        "lon": 49.632536549321465,
        "alt_km": 624.0831002158466,
        "timestamp": "2025-12-20T07:33:50.460753+00:00",
        "meta_object_name": "GAOFEN-2",
        "meta_object_id": "2014-049A",
        "meta_epoch": "2025-12-19T23:20:18.200832",
        "meta_mean_motion": 14.80618938,
        "meta_eccentricity": 0.00087309,
        "meta_inclination": 98.0383,
        "meta_ra_of_asc_node": 53.1538,
        "meta_arg_of_pericenter": 92.8628,
        "meta_mean_anomaly": 267.3583,
        "meta_ephemeris_type": 0,
        "meta_classification_type": "U",
        "meta_norad_cat_id": 40118,
        "meta_element_set_no": 999,
        "meta_rev_at_epoch": 61271,
        "meta_bstar": 7.319115e-06,
        "meta_mean_motion_dot": 3e-08,
        "meta_mean_motion_ddot": 0,
        "tle_line1": "1 40118U 14049A   25353.97243288  .00000003  00000+0  73191-5 0  9991",
        "tle_line2": "2 40118  98.0383  53.1538 0008730  92.8628 267.3583 14.80618938612714"
      },
      "geometry": {
        "type": "Point",
        "coordinates": [
          49.632536549321465,
          25.497830592915598
        ]
      }
    },
    {
      "type": "Feature",
      "properties": {
        "norad_id": 40143,
        "name": "YAOGAN-21",
        "group": "resource",
        "lat": 79.76810199974494,
        "lon": -6.9635505681349334,
        "alt_km": 484.53679786964767,
        "timestamp": "2025-12-20T07:33:50.460763+00:00",
        "meta_object_name": "YAOGAN-21",
        "meta_object_id": "2014-053A",
        "meta_epoch": "2025-12-19T23:19:21.460224",
        "meta_mean_motion": 15.23745147,
        "meta_eccentricity": 0.00090876,
        "meta_inclination": 97.1754,
        "meta_ra_of_asc_node": 36.9703,
        "meta_arg_of_pericenter": 19.0146,
        "meta_mean_anomaly": 341.143,
        "meta_ephemeris_type": 0,
        "meta_classification_type": "U",
        "meta_norad_cat_id": 40143,
        "meta_element_set_no": 999,
        "meta_rev_at_epoch": 62764,
        "meta_bstar": 0.00012891696,
        "meta_mean_motion_dot": 3.034e-05,
        "meta_mean_motion_ddot": 0,
        "tle_line1": "1 40143U 14053A   25353.97177616  .00003034  00000+0  12892-3 0  9991",
        "tle_line2": "2 40143  97.1754  36.9703 0009087  19.0146 341.1430 15.23745147627640"
      },
      "geometry": {
        "type": "Point",
        "coordinates": [
          -6.9635505681349334,
          79.76810199974494
        ]
      }
    },
    {
      "type": "Feature",
      "properties": {
        "norad_id": 40275,
        "name": "YAOGAN-22",
        "group": "resource",
        "lat": 9.305083853323136,
        "lon": 136.05908385659512,
        "alt_km": 1206.758135728025,
        "timestamp": "2025-12-20T07:33:50.460775+00:00",
        "meta_object_name": "YAOGAN-22",
        "meta_object_id": "2014-063A",
        "meta_epoch": "2025-12-19T22:23:23.202816",
        "meta_mean_motion": 13.15522939,
        "meta_eccentricity": 0.00060143,
        "meta_inclination": 100.7427,
        "meta_ra_of_asc_node": 137.454,
        "meta_arg_of_pericenter": 230.7915,
        "meta_mean_anomaly": 129.2663,
        "meta_ephemeris_type": 0,
        "meta_classification_type": "U",
        "meta_norad_cat_id": 40275,
        "meta_element_set_no": 999,
        "meta_rev_at_epoch": 53624,
        "meta_bstar": -1.4580584e-05,
        "meta_mean_motion_dot": -5.2e-07,
        "meta_mean_motion_ddot": 0,
        "tle_line1": "1 40275U 14063A   25353.93290744 -.00000052  00000+0 -14581-4 0  9999",
        "tle_line2": "2 40275 100.7427 137.4540 0006014 230.7915 129.2663 13.15522939536242"
      },
      "geometry": {
        "type": "Point",
        "coordinates": [
          136.05908385659512,
          9.305083853323136
        ]
      }
    },
    {
      "type": "Feature",
      "properties": {
        "norad_id": 40298,
        "name": "ASNARO",
        "group": "resource",
        "lat": 17.464345065729812,
        "lon": 67.74477540107847,
        "alt_km": 507.0045271424142,
        "timestamp": "2025-12-20T07:33:50.460785+00:00",
        "meta_object_name": "ASNARO",
        "meta_object_id": "2014-070A",
        "meta_epoch": "2025-12-19T22:00:16.921728",
        "meta_mean_motion": 15.19631441,
        "meta_eccentricity": 0.00057905,
        "meta_inclination": 97.3653,
        "meta_ra_of_asc_node": 69.6885,
        "meta_arg_of_pericenter": 102.0409,
        "meta_mean_anomaly": 258.1476,
        "meta_ephemeris_type": 0,
        "meta_classification_type": "U",
        "meta_norad_cat_id": 40298,
        "meta_element_set_no": 999,
        "meta_rev_at_epoch": 61678,
        "meta_bstar": 0.00026857844,
        "meta_mean_motion_dot": 5.659e-05,
        "meta_mean_motion_ddot": 0,
        "tle_line1": "1 40298U 14070A   25353.91686252  .00005659  00000+0  26858-3 0  9998",
        "tle_line2": "2 40298  97.3653  69.6885 0005790 102.0409 258.1476 15.19631441616783"
      },
      "geometry": {
        "type": "Point",
        "coordinates": [
          67.74477540107847,
          17.464345065729812
        ]
      }
    },
    {
      "type": "Feature",
      "properties": {
        "norad_id": 40310,
        "name": "YAOGAN-24",
        "group": "resource",
        "lat": -67.77566536291559,
        "lon": -75.0093641474236,
        "alt_km": 655.9702537388175,
        "timestamp": "2025-12-20T07:33:50.460795+00:00",
        "meta_object_name": "YAOGAN-24",
        "meta_object_id": "2014-072A",
        "meta_epoch": "2025-12-19T22:18:20.877984",
        "meta_mean_motion": 14.76190914,
        "meta_eccentricity": 0.00150489,
        "meta_inclination": 98.1221,
        "meta_ra_of_asc_node": 125.061,
        "meta_arg_of_pericenter": 116.3314,
        "meta_mean_anomaly": 243.9442,
        "meta_ephemeris_type": 0,
        "meta_classification_type": "U",
        "meta_norad_cat_id": 40310,
        "meta_element_set_no": 999,
        "meta_rev_at_epoch": 59727,
        "meta_bstar": 0.00011715037,
        "meta_mean_motion_dot": 7.59e-06,
        "meta_mean_motion_ddot": 0,
        "tle_line1": "1 40310U 14072A   25353.92940831  .00000759  00000+0  11715-3 0  9994",
        "tle_line2": "2 40310  98.1221 125.0610 0015048 116.3314 243.9442 14.76190914597275"
      },
      "geometry": {
        "type": "Point",
        "coordinates": [
          -75.0093641474236,
          -67.77566536291559
        ]
      }
    },
    {
      "type": "Feature",
      "properties": {
        "norad_id": 40336,
        "name": "CBERS 4",
        "group": "resource",
        "lat": -37.429355922692494,
        "lon": 58.511866361569794,
        "alt_km": 780.7009375002235,
        "timestamp": "2025-12-20T07:33:50.460806+00:00",
        "meta_object_name": "CBERS 4",
        "meta_object_id": "2014-079A",
        "meta_epoch": "2025-12-19T23:22:33.855744",
        "meta_mean_motion": 14.35519773,
        "meta_eccentricity": 0.00017992,
        "meta_inclination": 98.3305,
        "meta_ra_of_asc_node": 51.7435,
        "meta_arg_of_pericenter": 104.2918,
        "meta_mean_anomaly": 255.8468,
        "meta_ephemeris_type": 0,
        "meta_classification_type": "U",
        "meta_norad_cat_id": 40336,
        "meta_element_set_no": 999,
        "meta_rev_at_epoch": 57824,
        "meta_bstar": 1.4222999e-05,
        "meta_mean_motion_dot": -1e-08,
        "meta_mean_motion_ddot": 0,
        "tle_line1": "1 40336U 14079A   25353.97400296 -.00000001  00000+0  14223-4 0  9999",
        "tle_line2": "2 40336  98.3305  51.7435 0001799 104.2918 255.8468 14.35519773578241"
      },
      "geometry": {
        "type": "Point",
        "coordinates": [
          58.511866361569794,
          -37.429355922692494
        ]
      }
    },
    {
      "type": "Feature",
      "properties": {
        "norad_id": 40362,
        "name": "YAOGAN-26",
        "group": "resource",
        "lat": -44.93202916645643,
        "lon": 167.61424976434472,
        "alt_km": 457.00171976140973,
        "timestamp": "2025-12-20T07:33:50.460817+00:00",
        "meta_object_name": "YAOGAN-26",
        "meta_object_id": "2014-088A",
        "meta_epoch": "2025-12-19T22:47:19.271904",
        "meta_mean_motion": 15.39543084,
        "meta_eccentricity": 0.00051467,
        "meta_inclination": 97.0636,
        "meta_ra_of_asc_node": 354.3675,
        "meta_arg_of_pericenter": 8.7164,
        "meta_mean_anomaly": 351.4171,
        "meta_ephemeris_type": 0,
        "meta_classification_type": "U",
        "meta_norad_cat_id": 40362,
        "meta_element_set_no": 999,
        "meta_rev_at_epoch": 61005,
        "meta_bstar": 0.00041237893,
        "meta_mean_motion_dot": 0.0001615,
        "meta_mean_motion_ddot": 0,
        "tle_line1": "1 40362U 14088A   25353.94952861  .00016150  00000+0  41238-3 0  9991",
        "tle_line2": "2 40362  97.0636 354.3675 0005146   8.7164 351.4171 15.39543084610059"
      },
      "geometry": {
        "type": "Point",
        "coordinates": [
          167.61424976434472,
          -44.93202916645643
        ]
      }
    }
  ]
}